STARLINK-33948          
1 66147U 25240B   26185.56314250  .00076802  00000+0  22568-2 0  9992
2 66147  53.1587 239.8562 0001532  73.2699 286.8471 15.34459270 39937
STARLINK-35081          
1 66148U 25240C   26185.85258091  .00061405  00000+0  18120-2 0  9997
2 66148  53.1570 236.6831 0000989 106.5215 253.5897 15.34429795 39957
STARLINK-35601          
1 66149U 25240D   26185.91670139  .00063902  00000+0  18897-2 0  9991
2 66149  53.1602 238.1805 0000965 116.4788  49.3360 15.34343948  5911
STARLINK-35605          
1 66150U 25240E   26185.15760128  .00033636  00000+0  10017-2 0  9994
2 66150  53.1591 241.5887 0001712  91.8754 268.2445 15.34415128 39821
STARLINK-35540          
1 66151U 25240F   26185.84204131  .00039838  00000+0  11827-2 0  9998
2 66151  53.1569 236.6231 0001603  86.8100 273.3086 15.34432703 39953
STARLINK-35455          
1 66152U 25240G   26185.84625178  .00035709  00000+0  10623-2 0  9993
2 66152  53.1570 236.6546 0001195  81.7857 278.3281 15.34418652 39953
STARLINK-34752          
1 66153U 25240H   26185.54792061  .00059475  00000+0  17543-2 0  9991
2 66153  53.1578 238.3457 0000589  45.3477 314.7574 15.34457171 39906
STARLINK-34625          
1 66154U 25240J   26185.44973016  .00195149  00000+0  63631-2 0  9990
2 66154  53.1576 240.5674 0001025 351.6562   8.4422 15.30537827 39918
STARLINK-35580          
1 66155U 25240K   26185.56467153  .00042182  00000+0  12513-2 0  9995
2 66155  53.1569 237.7364 0001696  93.0994 267.0203 15.34431670 39918
STARLINK-35621          
1 66156U 25240L   26185.42656155  .00045966  00000+0  13622-2 0  9998
2 66156  53.1584 240.4260 0001133  87.0043 273.1090 15.34424943 39867
STARLINK-35594          
1 66157U 25240M   26185.86518597  .00048785  00000+0  14437-2 0  9991
2 66157  53.1575 236.7647 0001402  87.5423 272.5740 15.34441932 39953
STARLINK-35587          
1 66158U 25240N   26185.83958388  .00029453  00000+0  10014-2 0  9993
2 66158  53.1551 238.7353 0000558 328.1950  31.9017 15.30239260 39920
STARLINK-35586          
1 66159U 25240P   26185.43028031  .00033167  00000+0  98788-3 0  9995
2 66159  53.1561 239.0289 0001221  87.9656 272.1486 15.34417626 39887
STARLINK-35636          
1 66160U 25240Q   26185.55051388  .00041920  00000+0  12434-2 0  9990
2 66160  53.1585 239.7770 0001251  91.9039 268.2107 15.34438216 39884
STARLINK-35635          
1 66161U 25240R   26185.84063680  .00043613  00000+0  14738-2 0  9991
2 66161  53.1566 238.7440 0000888 291.7540  68.3366 15.30247528 39920
STARLINK-35633          
1 66162U 25240S   26185.56249869  .00054490  00000+0  18362-2 0  9998
2 66162  53.1582 239.8383 0000781  71.0169 289.0916 15.30240096 39886
STARLINK-35607          
1 66163U 25240T   26185.84414747  .00042832  00000+0  12709-2 0  9995
2 66163  53.1574 236.6257 0001433  85.9972 274.1194 15.34417032 39955
STARLINK-35614          
1 66164U 25240U   26185.86098135  .00065149  00000+0  19200-2 0  9996
2 66164  53.1578 236.7317 0001149  74.3526 285.7603 15.34443173 39957
STARLINK-35575          
1 66165U 25240V   26185.85465925  .00043233  00000+0  12810-2 0  9991
2 66165  53.1592 236.6929 0000266 323.9628  36.1356 15.34457684 39952
STARLINK-35624          
1 66166U 25240W   26185.83572369  .00036360  00000+0  10807-2 0  9998
2 66166  53.1564 236.5718 0000672 324.9031  35.1927 15.34439953 39959
STARLINK-35641          
1 66167U 25240X   26185.85887448  .00049910  00000+0  14775-2 0  9991
2 66167  53.1574 236.7144 0001623  88.1020 272.0168 15.34419788 39953
STARLINK-35578          
1 66168U 25240Y   26185.91670139  .00051437  00000+0  15236-2 0  9996
2 66168  53.1594 238.0959 0001420  85.4575 115.2799 15.34389175  5918
STARLINK-35638          
1 66169U 25240Z   26185.17863884  .00035160  00000+0  10464-2 0  9999
2 66169  53.1576 241.7082 0001611  94.1654 265.9533 15.34414343 39826
STARLINK-35585          
1 66170U 25240AA  26185.86307114  .00046933  00000+0  13902-2 0  9996
2 66170  53.1580 236.7433 0000350  81.1945 278.9097 15.34430897 39950
STARLINK-35606          
1 66171U 25240AB  26185.83783457  .00035672  00000+0  10611-2 0  9994
2 66171  53.1573 236.5870 0001454  88.8091 271.3078 15.34423514 39952
STARLINK-35627          
1 66172U 25240AC  26185.44348249  .00037750  00000+0  12795-2 0  9992
2 66172  53.1573 240.5177 0000502  84.0135 276.0923 15.30217906 39861
STARLINK-35634          
1 66173U 25240AD  26185.85046124  .00045000  00000+0  13343-2 0  9992
2 66173  53.1580 236.6634 0002265  83.1360 276.9900 15.34415660 39957
STARLINK-35363          
1 66178U 25243B   26185.36274863  .00035968  00000+0  10692-2 0  9995
2 66178  53.1590  62.8455 0001516  71.6226 288.4941 15.34439235 38523
STARLINK-35346          
1 66179U 25243C   26185.66948466  .00078070  00000+0  22940-2 0  9996
2 66179  53.1577  61.2064 0001522 105.3678 254.7493 15.34452816 38574
STARLINK-35335          
1 66180U 25243D   26185.39010312  .00039367  00000+0  11699-2 0  9993
2 66180  53.1608  63.0147 0001861  89.1969 270.9247 15.34407477 38526
