OBJECT_NAME,OBJECT_ID,EPOCH,MEAN_MOTION,ECCENTRICITY,INCLINATION,RA_OF_ASC_NODE,ARG_OF_PERICENTER,MEAN_ANOMALY,EPHEMERIS_TYPE,CLASSIFICATION_TYPE,NORAD_CAT_ID,ELEMENT_SET_NO,REV_AT_EPOCH,BSTAR,MEAN_MOTION_DOT,MEAN_MOTION_DDOT
STARLINK-33948,2025-240B,2026-07-04T13:30:55.512000,15.34459270,.0001532,53.1587,239.8562,73.2699,286.8471,0,U,66147,999,3993,.22568013E-2,.76802E-3,0
STARLINK-35081,2025-240C,2026-07-04T20:27:42.990624,15.34429795,.00009899,53.1570,236.6831,106.5215,253.5897,0,U,66148,999,3995,.18119869E-2,.61405E-3,0
STARLINK-35601,2025-240D,2026-07-04T22:00:03.000096,15.34343948,.00009653,53.1602,238.1805,116.4788,49.3360,0,U,66149,999,591,.18897222E-2,.63902E-3,0
STARLINK-35605,2025-240E,2026-07-04T03:46:56.750592,15.34415128,.00017125,53.1591,241.5887,91.8754,268.2445,0,U,66150,999,3982,.10017022E-2,.33636E-3,0
STARLINK-35540,2025-240F,2026-07-04T20:12:32.369184,15.34432703,.00016031,53.1569,236.6231,86.8100,273.3086,0,U,66151,999,3995,.1182722E-2,.39838E-3,0
STARLINK-35455,2025-240G,2026-07-04T20:18:36.153792,15.34418652,.00011951,53.1570,236.6546,81.7857,278.3281,0,U,66152,999,3995,.10623368E-2,.35709E-3,0
STARLINK-34752,2025-240H,2026-07-04T13:09:00.340704,15.34457171,.00005893,53.1578,238.3457,45.3477,314.7574,0,U,66153,999,3990,.17542959E-2,.59475E-3,0
STARLINK-34625,2025-240J,2026-07-04T10:47:36.685824,15.30537827,.00010259,53.1576,240.5674,351.6562,8.4422,0,U,66154,999,3991,.63631123E-2,.195149E-2,0
STARLINK-35580,2025-240K,2026-07-04T13:33:07.620192,15.34431670,.00016964,53.1569,237.7364,93.0994,267.0203,0,U,66155,999,3991,.12512921E-2,.42182E-3,0
STARLINK-35621,2025-240L,2026-07-04T10:14:14.917920,15.34424943,.00011331,53.1584,240.4260,87.0043,273.1090,0,U,66156,999,3986,.13621657E-2,.45966E-3,0
STARLINK-35594,2025-240M,2026-07-04T20:45:52.067808,15.34441932,.00014028,53.1575,236.7647,87.5423,272.5740,0,U,66157,999,3995,.14437144E-2,.48785E-3,0
STARLINK-35587,2025-240N,2026-07-04T20:09:00.047232,15.30239260,.00005581,53.1551,238.7353,328.1950,31.9017,0,U,66158,999,3992,.10013932E-2,.29453E-3,0
STARLINK-35586,2025-240P,2026-07-04T10:19:36.218784,15.34417626,.00012213,53.1561,239.0289,87.9656,272.1486,0,U,66159,999,3988,.98788074E-3,.33167E-3,0
STARLINK-35636,2025-240Q,2026-07-04T13:12:44.399232,15.34438216,.00012517,53.1585,239.7770,91.9039,268.2107,0,U,66160,999,3988,.12434056E-2,.4192E-3,0
STARLINK-35635,2025-240R,2026-07-04T20:10:31.019520,15.30247528,.00008888,53.1566,238.7440,291.7540,68.3366,0,U,66161,999,3992,.1473848E-2,.43613E-3,0
STARLINK-35633,2025-240S,2026-07-04T13:29:59.886816,15.30240096,.00007813,53.1582,239.8383,71.0169,289.0916,0,U,66162,999,3988,.18361695E-2,.5449E-3,0
STARLINK-35607,2025-240T,2026-07-04T20:15:34.341408,15.34417032,.00014337,53.1574,236.6257,85.9972,274.1194,0,U,66163,999,3995,.12709072E-2,.42832E-3,0
STARLINK-35614,2025-240U,2026-07-04T20:39:48.788640,15.34443173,.00011498,53.1578,236.7317,74.3526,285.7603,0,U,66164,999,3995,.19200203E-2,.65149E-3,0
STARLINK-35575,2025-240V,2026-07-04T20:30:42.559200,15.34457684,.00002669,53.1592,236.6929,323.9628,36.1356,0,U,66165,999,3995,.1280982E-2,.43233E-3,0
STARLINK-35624,2025-240W,2026-07-04T20:03:26.526816,15.34439953,.0000672,53.1564,236.5718,324.9031,35.1927,0,U,66166,999,3995,.10806793E-2,.3636E-3,0
STARLINK-35641,2025-240X,2026-07-04T20:36:46.755072,15.34419788,.00016232,53.1574,236.7144,88.1020,272.0168,0,U,66167,999,3995,.1477544E-2,.4991E-3,0
STARLINK-35578,2025-240Y,2026-07-04T22:00:03.000096,15.34389175,.00014201,53.1594,238.0959,85.4575,115.2799,0,U,66168,999,591,.15236048E-2,.51437E-3,0
STARLINK-35638,2025-240Z,2026-07-04T04:17:14.395776,15.34414343,.00016115,53.1576,241.7082,94.1654,265.9533,0,U,66169,999,3982,.10463849E-2,.3516E-3,0
STARLINK-35585,2025-240AA,2026-07-04T20:42:49.346496,15.34430897,.00003504,53.1580,236.7433,81.1945,278.9097,0,U,66170,999,3995,.13901531E-2,.46933E-3,0
STARLINK-35606,2025-240AB,2026-07-04T20:06:28.906848,15.34423514,.00014541,53.1573,236.5870,88.8091,271.3078,0,U,66171,999,3995,.10610783E-2,.35672E-3,0
STARLINK-35627,2025-240AC,2026-07-04T10:38:36.887136,15.30217906,.00005023,53.1573,240.5177,84.0135,276.0923,0,U,66172,999,3986,.12795052E-2,.3775E-3,0
STARLINK-35634,2025-240AD,2026-07-04T20:24:39.851136,15.34415660,.00022657,53.1580,236.6634,83.1360,276.9900,0,U,66173,999,3995,.13343132E-2,.45E-3,0
STARLINK-35363,2025-243B,2026-07-04T08:42:21.481632,15.34439235,.00015163,53.1590,62.8455,71.6226,288.4941,0,U,66178,999,3852,.10692376E-2,.35968E-3,0
STARLINK-35346,2025-243C,2026-07-04T16:04:03.474624,15.34452816,.0001522,53.1577,61.2064,105.3678,254.7493,0,U,66179,999,3857,.22939601E-2,.7807E-3,0
STARLINK-35335,2025-243D,2026-07-04T09:21:44.909568,15.34407477,.00018618,53.1608,63.0147,89.1969,270.9247,0,U,66180,999,3852,.11698779E-2,.39367E-3,0
